TDRS 3                  
1 19548U 88091B   25118.94807681 -.00000305  00000+0  00000+0 0  9990
2 19548  12.9189 343.7604 0038531 346.6929 179.0801  1.00276189121212
FLTSATCOM 8 (USA 46)    
1 20253U 89077A   25118.90094532 -.00000373  00000+0  00000+0 0  9994
2 20253  12.5391 353.6482 0006181  15.2012 298.0230  1.00261302256443
SKYNET 4C               
1 20776U 90079A   25118.82149213  .00000120  00000+0  00000+0 0  9995
2 20776  13.4729 352.6365 0002181  33.5874 159.8892  1.00274289126736
TDRS 5                  
1 21639U 91054B   25118.78552367  .00000093  00000+0  00000+0 0  9990
2 21639  14.1217 356.8236 0003283  28.6911 325.7094  0.99957286123556
TDRS 6                  
1 22314U 93003B   25119.04697619 -.00000301  00000+0  00000+0 0  9990
2 22314  14.1732   0.1095 0007718 165.0055  23.1853  1.00270654118223
UFO 2 (USA 95)          
1 22787U 93056A   25118.82062332  .00000121  00000+0  00000+0 0  9994
2 22787  11.7553   5.7628 0004079 351.9121 183.4257  1.00275562114396
USA 99 (MILSTAR-1 1)    
1 22988U 94009A   25118.26272343 -.00000201  00000+0  00000+0 0  9999
2 22988  16.9985  32.1402 0001753 342.3558 206.5826  1.00272514 28794
UFO 4 (USA 108)         
1 23467U 95003A   25118.58061804 -.00000023  00000+0  00000+0 0  9992
2 23467   9.7111  14.5303 0002317  35.1090 188.5936  1.00276235110794
TDRS 7                  
1 23613U 95035B   25118.63586553 -.00000208  00000+0  00000+0 0  9994
2 23613  13.5503 351.0425 0028282  71.2127 108.3500  1.00275372109099
USA 115 (MILSTAR-1 2)   
1 23712U 95060A   25118.71979927 -.00000025  00000+0  00000+0 0  9999
2 23712  13.9205   6.7773 0003441   3.7653 345.5283  1.00274351 28725
INMARSAT 3-F1           
1 23839U 96020A   25119.16514760 -.00000266  00000+0  00000+0 0  9993
2 23839   9.7366  50.3035 0003548 353.5231 199.1646  0.99998012106411
INMARSAT 3-F2           
1 24307U 96053A   25118.54733354  .00000120  00000+0  00000+0 0  9991
2 24307   8.9155  58.0241 0006674 351.7287 211.8503  0.99991103104772
INMARSAT 3-F3           
1 24674U 96070A   25118.97559793 -.00000290  00000+0  00000+0 0  9996
2 24674   9.4200  53.4889 0003977 327.2191 291.9894  0.99987773103766
AMC-3                   
1 24936U 97050A   25118.32336479 -.00000259  00000+0  00000+0 0  9994
2 24936   7.1297  68.7475 0002814 327.4298 224.7621  1.00271080 48273
USA 134                 
1 25019U 97065A   25118.44711758 -.00000065  00000+0  00000+0 0  9998
2 25019  12.2892  24.7157 0003923 324.6640 276.1048  1.00272927 28795
INMARSAT 3-F5           
1 25153U 98006B   25118.73283132 -.00000290  00000+0  00000+0 0  9995
2 25153   8.7642  57.2448 0004364 340.3167  29.2150  1.00273190 99747
ASTRA 2A                
1 25462U 98050A   25119.10398383 -.00000079  00000+0  00000+0 0  9999
2 25462   6.0476  73.7790 0000734 195.8993   2.5206  0.99023279 97580
SKYNET 4E               
1 25639U 99009B   25118.88613111 -.00000038  00000+0  00000+0 0  9998
2 25639  11.8171  11.3769 0003080  25.1434 138.3754  1.00274473 47025
ABS-6                   
1 25924U 99053A   25118.84642679 -.00000118  00000+0  00000+0 0  9990
2 25924   0.0206 111.4558 0002817 303.6526 265.6965  1.00277519 93687
UFO 10 (USA 146)        
1 25967U 99063A   25118.52058907 -.00000190  00000+0  00000+0 0  9998
2 25967   9.6974  29.2863 0001869 313.5069  38.3707  1.00269167 93188
USA 148                 
1 26052U 00001A   25118.49365683  .00000035  00000+0  00000+0 0  9993
2 26052  11.2269  35.4805 0001709 302.7068 236.4352  1.00272356 28805
ASIASTAR                
1 26107U 00016A   25118.97559793 -.00000334  00000+0  00000+0 0  9993
2 26107   8.1594  62.4563 0003950 344.6279 266.3441  1.00271435 92003
USA 149 (DSP 20)        
1 26356U 00024A   25118.62788531  .00000092  00000+0  00000+0 0  9994
2 26356  12.8577  14.7161 0001444 195.1940  67.7192  1.00277646 28753
TDRS 8                  
1 26388U 00034A   25118.49600259  .00000093  00000+0  00000+0 0  9996
2 26388  12.0381  34.7206 0004580 270.6334 282.2683  1.00269330 91025
INTELSAT 9 (IS-9)       
1 26451U 00043A   25118.89942381 -.00000014  00000+0  00000+0 0  9990
2 26451   9.4771  52.9378 0003751 357.6100 196.5953  1.00270555 90697
NSS-11                  
1 26554U 00059A   25119.13543453  .00000025  00000+0  00000+0 0  9997
2 26554   1.0553  86.2795 0002851 308.3995  47.4138  1.00271965 90027
USA 153                 
1 26575U 00065A   25118.73656075 -.00000326  00000+0  00000+0 0  9992
2 26575  10.9074  38.7005 0001447 331.6955 246.2065  1.00269800 28774
AMC-6                   
1 26580U 00067A   25119.16086209  .00000088  00000+0  00000+0 0  9998
2 26580   0.0905  77.8014 0002738 315.7583 106.6326  1.00271608 89833
USA 157 (MILSTAR-2 2)   
1 26715U 01009A   25118.38100256  .00000108  00000+0  00000+0 0  9990
2 26715  11.0873  22.1920 0038280 177.0740   4.5203  1.00276560 28782
INTELSAT 10 (IS-10)     
1 26766U 01019A   25118.89942381 -.00000008  00000+0  00000+0 0  9996
2 26766   8.0842  63.4725 0004041 327.1726 216.3467  1.00271108 87773
INTELSAT 901 (IS-901)   
1 26824U 01024A   25118.85198714 -.00000138  00000+0  00000+0 0  9990
2 26824   0.1694  93.6629 0003141 312.6280 304.3698  0.98803018 18829
USA 159 (DSP 21)        
1 26880U 01033A   25119.09767171 -.00000302  00000+0  00000+0 0  9991
2 26880  12.3955  19.2608 0000861 163.1377  21.0306  1.00272248 27467
INTELSAT 902 (IS-902)   
1 26900U 01039A   25114.80664794 -.00000276  00000+0  00000+0 0  9991
2 26900   5.0593  76.8785 0004482 311.6439  64.8541  1.00272818 86503
USA 164 (MILSTAR-2 3)   
1 27168U 02001A   25118.96136949  .00000094  00000+0  00000+0 0  9992
2 27168  10.6855  24.2585 0099968   6.0956 191.8517  1.00268228 27497
INTELSAT 904 (IS-904)   
1 27380U 02007A   25118.73769662 -.00000213  00000+0  00000+0 0  9997
2 27380   5.8814  74.1325 0002898 325.5381  53.3509  1.00271420 47614
DIRECTV 5 (TEMPO 1)     
1 27426U 02023A   25118.57423676 -.00000055  00000+0  00000+0 0  9994
2 27426   3.8163  80.4891 0003145 315.5204 277.3904  1.00271905 84141
INTELSAT 905 (IS-905)   
1 27438U 02027A   25116.30176499  .00000093  00000+0  00000+0 0  9999
2 27438   5.7027  74.7984 0002738 300.5391 177.7948  1.00016484 83780
GALAXY 3C (G-3C)        
1 27445U 02030A   25118.58326344 -.00000150  00000+0  00000+0 0  9994
2 27445   2.6611  83.2429 0002783  50.0699 198.6086  1.00270696 42338
INTELSAT 906 (IS-906)   
1 27513U 02041A   25118.89907628  .00000014  00000+0  00000+0 0  9994
2 27513   4.7488  78.0217 0003172 336.1926 190.7268  1.00273204 82876
TDRS 10                 
1 27566U 02055A   25119.03837147 -.00000224  00000+0  00000+0 0  9996
2 27566   9.5417  47.8538 0008706 288.8984 161.9044  1.00666936 82076
NIMIQ 2                 
1 27632U 02062A   25118.86467168 -.00000068  00000+0  00000+0 0  9996
2 27632   8.4832  61.1481 0005782 332.5504  25.4818  1.00272269 40025
USA 167                 
1 27691U 03008A   25118.43876959  .00000006  00000+0  00000+0 0  9998
2 27691  10.1353  46.9832 0003551 296.7949 268.8870  1.00268999  2614
USA 169 (MILSTAR-2 4)   
1 27711U 03012A   25118.56208204 -.00000246  00000+0  00000+0 0  9999
2 27711  11.7182  33.0778 0100129   8.5191 169.6860  1.00271798 28792
ASIASAT 4               
1 27718U 03014A   25119.16830641 -.00000222  00000+0  00000+0 0  9995
2 27718   3.6446  80.9609 0002265 314.1015  30.4459  1.00272154 80771
HELLAS-SAT 2            
1 27811U 03020A   25119.16992603 -.00000083  00000+0  00000+0 0  9998
2 27811   6.3218  72.8041 0004126 296.1243 259.6267  1.00271320 80183
THURAYA-2               
1 27825U 03026A   25117.95891993  .00000126  00000+0  00000+0 0  9991
2 27825   8.1897  33.4846 0008127 342.4666 229.4367  1.00273781 80174
OPTUS C1                
1 27831U 03028B   25118.70303135 -.00000149  00000+0  00000+0 0  9996
2 27831   5.8490  74.4101 0005846 317.9932 233.3554  1.00271070 48907
GALAXY 23 (G-23)        
1 27854U 03034A   25118.56726345  .00000014  00000+0  00000+0 0  9994
2 27854   2.1252  84.8332 0002612 318.7939 256.5044  1.00274706 79581
USA 170                 
1 27875U 03040A   25119.03864446  .00000125  00000+0  00000+0 0  9995
2 27875   9.6192  51.7325 0001712  12.1634 191.3318  1.00269300 27476
GALAXY 13 (HORIZONS-1)  
1 27954U 03044A   25118.71380453  .00000133  00000+0  00000+0 0  9991
2 27954   0.3461  90.4134 0002407 301.6061 291.8820  1.00270006 42411
YAMAL 202               
1 28089U 03053A   25118.70450832 -.00000079  00000+0  00000+0 0  9999
2 28089   5.2963  75.9638 0003186 312.1097 245.9361  1.00272142 78546
UFO 11 (USA 174)        
1 28117U 03057A   25118.82983264 -.00000105  00000+0  00000+0 0  9998
2 28117   8.5494  35.6680 0002643 341.9505 213.6661  1.00272315 78293
USA 176 (DSP 22)        
1 28158U 04004A   25119.19018242 -.00000222  00000+0  00000+0 0  9992
2 28158  11.4967  28.9917 0000419  56.4780 287.7208  1.00269198 27452
ABS-4 (MOBISAT-1)       
1 28184U 04007A   25118.89846813  .00000041  00000+0  00000+0 0  9991
2 28184   4.9916  77.0388 0005429 320.9487 203.5526  1.00269913 48185
EUTELSAT 7A             
1 28187U 04008A   25118.55599557  .00000105  00000+0  00000+0 0  9999
2 28187   4.7762  76.9433 0003660 321.3400 239.4689  1.00273782 77199
AMC-11                  
1 28252U 04017A   25118.36392194 -.00000048  00000+0  00000+0 0  9996
2 28252   0.0635  76.3144 0002889 324.4193 195.7586  1.00271897 76710
INTELSAT 10-02          
1 28358U 04022A   25118.38933726 -.00000010  00000+0  00000+0 0  9992
2 28358   0.0071 100.3980 0000808 268.3388 347.0507  1.00270290 76393
ANIK F2                 
1 28378U 04027A   25119.17992884 -.00000049  00000+0  00000+0 0  9999
2 28378   2.2188  84.8311 0004601 330.8212 115.4000  1.00271144 76202
AMC-15                  
1 28446U 04041A   25118.57742331 -.00000087  00000+0  00000+0 0  9996
2 28446   0.0669  75.1039 0002161 306.0979 298.4022  1.00270192 75153
